QIANFAN-52              
1 62253U 24232S   26032.98167058  .00000026  00000+0  21622-4 0  9992
2 62253  89.0002  35.9319 0016826  49.2345 311.0263 13.50994588 74862
QIANFAN-53              
1 62254U 24232T   26032.96105328  .00000049  00000+0  57479-4 0  9997
2 62254  89.0009  36.0424 0015731  50.6310 309.6232 13.50984885 74825
QIANFAN-54              
1 62255U 24232U   26032.92811932  .00000052  00000+0  61906-4 0  9993
2 62255  89.0000  35.7196 0004086  88.4445 271.7174 13.50985470106324
QIANFAN-55              
1 62785U 25016A   26032.87996909  .00000120  00000+0  16724-3 0  9997
2 62785  88.9743  97.9305 0017288 193.9610 166.1066 13.50992332 54098
QIANFAN-56              
1 62786U 25016B   26032.89639307  .00000118  00000+0  16359-3 0  9997
2 62786  88.9716  97.7514 0015873 195.6873 164.3788 13.50994542 54149
QIANFAN-57              
1 62787U 25016C   26032.92939091  .00000107  00000+0  14669-3 0  9995
2 62787  88.9747  97.9172 0002063  84.7145 275.4242 13.50992992 54116
QIANFAN-58              
1 62788U 25016D   26032.90052271  .00000114  00000+0  15791-3 0  9995
2 62788  88.9716  97.7360 0014065 187.0713 173.0242 13.50994813 54154
QIANFAN-59              
1 62789U 25016E   26032.92526635  .00000102  00000+0  13966-3 0  9997
2 62789  88.9740  97.8193 0014291 190.9419 169.1423 13.50990921 54157
QIANFAN-60              
1 62790U 25016F   26032.88408291  .00000105  00000+0  14320-3 0  9999
2 62790  88.9721  97.7853 0015951 188.3566 171.7322 13.50989013 54133
QIANFAN-61              
1 62791U 25016G   26032.91703615  .00000106  00000+0  14610-3 0  9995
2 62791  88.9789  97.9797 0014904 187.1407 172.9534 13.50990328 54156
QIANFAN-62              
1 62792U 25016H   26032.92114032  .00000102  00000+0  13967-3 0  9996
2 62792  88.9735  97.8200 0016263 188.1560 171.9329 13.50992993 54147
QIANFAN-63              
1 62793U 25016J   26032.94582264  .00000125  00000+0  17493-3 0  9998
2 62793  88.9741  97.7724 0016149 193.4019 166.6706 13.50991268 54184
QIANFAN-64              
1 62794U 25016K   26032.91291348  .00000117  00000+0  16315-3 0  9999
2 62794  88.9728  97.7429 0014329 185.4906 174.6091 13.50989674 54179
QIANFAN-65              
1 62795U 25016L   26032.90886472  .00000119  00000+0  16494-3 0  9997
2 62795  88.9725  97.7676 0014125 187.0828 173.0126 13.50988395 54155
QIANFAN-66              
1 62796U 25016M   26032.93757855  .00000118  00000+0  16334-3 0  9995
2 62796  88.9744  97.7448 0015377 183.3441 176.7610 13.50993232 54204
QIANFAN-67              
1 62797U 25016N   26032.94166436  .00000118  00000+0  16360-3 0  9995
2 62797  88.9734  97.7649 0015106 190.0565 170.0286 13.50997492 54173
QIANFAN-68              
1 62798U 25016P   26032.85944126  .00000106  00000+0  14472-3 0  9995
2 62798  88.9738  97.8205 0015210 188.5965 171.4928 13.50989439 54146
