[{"OBJECT_NAME":"QIANFAN-52","OBJECT_ID":"2024-232S","EPOCH":"2026-02-01T23:33:36.338112","MEAN_MOTION":13.50994588,"ECCENTRICITY":0.00168269,"INCLINATION":89.0002,"RA_OF_ASC_NODE":35.9319,"ARG_OF_PERICENTER":49.2345,"MEAN_ANOMALY":311.0263,"EPHEMERIS_TYPE":0,"CLASSIFICATION_TYPE":"U","NORAD_CAT_ID":62253,"ELEMENT_SET_NO":999,"REV_AT_EPOCH":7486,"BSTAR":2.162218e-5,"MEAN_MOTION_DOT":2.6e-7,"MEAN_MOTION_DDOT":0},{"OBJECT_NAME":"QIANFAN-53","OBJECT_ID":"2024-232T","EPOCH":"2026-02-01T23:03:55.003392","MEAN_MOTION":13.50984885,"ECCENTRICITY":0.00157316,"INCLINATION":89.0009,"RA_OF_ASC_NODE":36.0424,"ARG_OF_PERICENTER":50.631,"MEAN_ANOMALY":309.6232,"EPHEMERIS_TYPE":0,"CLASSIFICATION_TYPE":"U","NORAD_CAT_ID":62254,"ELEMENT_SET_NO":999,"REV_AT_EPOCH":7482,"BSTAR":5.7479135e-5,"MEAN_MOTION_DOT":4.9e-7,"MEAN_MOTION_DDOT":0},{"OBJECT_NAME":"QIANFAN-54","OBJECT_ID":"2024-232U","EPOCH":"2026-02-01T22:16:29.509248","MEAN_MOTION":13.5098547,"ECCENTRICITY":0.00040862,"INCLINATION":89,"RA_OF_ASC_NODE":35.7196,"ARG_OF_PERICENTER":88.4445,"MEAN_ANOMALY":271.7174,"EPHEMERIS_TYPE":0,"CLASSIFICATION_TYPE":"U","NORAD_CAT_ID":62255,"ELEMENT_SET_NO":999,"REV_AT_EPOCH":10632,"BSTAR":6.1905587e-5,"MEAN_MOTION_DOT":5.2e-7,"MEAN_MOTION_DDOT":0},{"OBJECT_NAME":"QIANFAN-55","OBJECT_ID":"2025-016A","EPOCH":"2026-02-01T21:07:09.329376","MEAN_MOTION":13.50992332,"ECCENTRICITY":0.00172888,"INCLINATION":88.9743,"RA_OF_ASC_NODE":97.9305,"ARG_OF_PERICENTER":193.961,"MEAN_ANOMALY":166.1066,"EPHEMERIS_TYPE":0,"CLASSIFICATION_TYPE":"U","NORAD_CAT_ID":62785,"ELEMENT_SET_NO":999,"REV_AT_EPOCH":5409,"BSTAR":0.00016723635,"MEAN_MOTION_DOT":1.2e-6,"MEAN_MOTION_DDOT":0},{"OBJECT_NAME":"QIANFAN-56","OBJECT_ID":"2025-016B","EPOCH":"2026-02-01T21:30:48.361248","MEAN_MOTION":13.50994542,"ECCENTRICITY":0.00158731,"INCLINATION":88.9716,"RA_OF_ASC_NODE":97.7514,"ARG_OF_PERICENTER":195.6873,"MEAN_ANOMALY":164.3788,"EPHEMERIS_TYPE":0,"CLASSIFICATION_TYPE":"U","NORAD_CAT_ID":62786,"ELEMENT_SET_NO":999,"REV_AT_EPOCH":5414,"BSTAR":0.00016359315,"MEAN_MOTION_DOT":1.18e-6,"MEAN_MOTION_DDOT":0},{"OBJECT_NAME":"QIANFAN-57","OBJECT_ID":"2025-016C","EPOCH":"2026-02-01T22:18:19.374624","MEAN_MOTION":13.50992992,"ECCENTRICITY":0.00020638,"INCLINATION":88.9747,"RA_OF_ASC_NODE":97.9172,"ARG_OF_PERICENTER":84.7145,"MEAN_ANOMALY":275.4242,"EPHEMERIS_TYPE":0,"CLASSIFICATION_TYPE":"U","NORAD_CAT_ID":62787,"ELEMENT_SET_NO":999,"REV_AT_EPOCH":5411,"BSTAR":0.00014669347,"MEAN_MOTION_DOT":1.07e-6,"MEAN_MOTION_DDOT":0},{"OBJECT_NAME":"QIANFAN-58","OBJECT_ID":"2025-016D","EPOCH":"2026-02-01T21:36:45.162144","MEAN_MOTION":13.50994813,"ECCENTRICITY":0.0014065,"INCLINATION":88.9716,"RA_OF_ASC_NODE":97.736,"ARG_OF_PERICENTER":187.0713,"MEAN_ANOMALY":173.0242,"EPHEMERIS_TYPE":0,"CLASSIFICATION_TYPE":"U","NORAD_CAT_ID":62788,"ELEMENT_SET_NO":999,"REV_AT_EPOCH":5415,"BSTAR":0.00015791093,"MEAN_MOTION_DOT":1.14e-6,"MEAN_MOTION_DDOT":0},{"OBJECT_NAME":"QIANFAN-59","OBJECT_ID":"2025-016E","EPOCH":"2026-02-01T22:12:23.012640","MEAN_MOTION":13.50990921,"ECCENTRICITY":0.00142913,"INCLINATION":88.974,"RA_OF_ASC_NODE":97.8193,"ARG_OF_PERICENTER":190.9419,"MEAN_ANOMALY":169.1423,"EPHEMERIS_TYPE":0,"CLASSIFICATION_TYPE":"U","NORAD_CAT_ID":62789,"ELEMENT_SET_NO":999,"REV_AT_EPOCH":5415,"BSTAR":0.00013966017,"MEAN_MOTION_DOT":1.02e-6,"MEAN_MOTION_DDOT":0},{"OBJECT_NAME":"QIANFAN-60","OBJECT_ID":"2025-016F","EPOCH":"2026-02-01T21:13:04.763424","MEAN_MOTION":13.50989013,"ECCENTRICITY":0.00159513,"INCLINATION":88.9721,"RA_OF_ASC_NODE":97.7853,"ARG_OF_PERICENTER":188.3566,"MEAN_ANOMALY":171.7322,"EPHEMERIS_TYPE":0,"CLASSIFICATION_TYPE":"U","NORAD_CAT_ID":62790,"ELEMENT_SET_NO":999,"REV_AT_EPOCH":5413,"BSTAR":0.00014320401,"MEAN_MOTION_DOT":1.05e-6,"MEAN_MOTION_DDOT":0},{"OBJECT_NAME":"QIANFAN-61","OBJECT_ID":"2025-016G","EPOCH":"2026-02-01T22:00:31.923360","MEAN_MOTION":13.50990328,"ECCENTRICITY":0.00149048,"INCLINATION":88.9789,"RA_OF_ASC_NODE":97.9797,"ARG_OF_PERICENTER":187.1407,"MEAN_ANOMALY":172.9534,"EPHEMERIS_TYPE":0,"CLASSIFICATION_TYPE":"U","NORAD_CAT_ID":62791,"ELEMENT_SET_NO":999,"REV_AT_EPOCH":5415,"BSTAR":0.00014609565,"MEAN_MOTION_DOT":1.06e-6,"MEAN_MOTION_DDOT":0},{"OBJECT_NAME":"QIANFAN-62","OBJECT_ID":"2025-016H","EPOCH":"2026-02-01T22:06:26.523648","MEAN_MOTION":13.50992993,"ECCENTRICITY":0.00162635,"INCLINATION":88.9735,"RA_OF_ASC_NODE":97.82,"ARG_OF_PERICENTER":188.156,"MEAN_ANOMALY":171.9329,"EPHEMERIS_TYPE":0,"CLASSIFICATION_TYPE":"U","NORAD_CAT_ID":62792,"ELEMENT_SET_NO":999,"REV_AT_EPOCH":5414,"BSTAR":0.00013966744,"MEAN_MOTION_DOT":1.02e-6,"MEAN_MOTION_DDOT":0},{"OBJECT_NAME":"QIANFAN-63","OBJECT_ID":"2025-016J","EPOCH":"2026-02-01T22:41:59.076096","MEAN_MOTION":13.50991268,"ECCENTRICITY":0.00161497,"INCLINATION":88.9741,"RA_OF_ASC_NODE":97.7724,"ARG_OF_PERICENTER":193.4019,"MEAN_ANOMALY":166.6706,"EPHEMERIS_TYPE":0,"CLASSIFICATION_TYPE":"U","NORAD_CAT_ID":62793,"ELEMENT_SET_NO":999,"REV_AT_EPOCH":5418,"BSTAR":0.00017492795,"MEAN_MOTION_DOT":1.25e-6,"MEAN_MOTION_DDOT":0},{"OBJECT_NAME":"QIANFAN-64","OBJECT_ID":"2025-016K","EPOCH":"2026-02-01T21:54:35.724672","MEAN_MOTION":13.50989674,"ECCENTRICITY":0.00143296,"INCLINATION":88.9728,"RA_OF_ASC_NODE":97.7429,"ARG_OF_PERICENTER":185.4906,"MEAN_ANOMALY":174.6091,"EPHEMERIS_TYPE":0,"CLASSIFICATION_TYPE":"U","NORAD_CAT_ID":62794,"ELEMENT_SET_NO":999,"REV_AT_EPOCH":5417,"BSTAR":0.00016315347,"MEAN_MOTION_DOT":1.17e-6,"MEAN_MOTION_DDOT":0},{"OBJECT_NAME":"QIANFAN-65","OBJECT_ID":"2025-016L","EPOCH":"2026-02-01T21:48:45.911808","MEAN_MOTION":13.50988395,"ECCENTRICITY":0.00141254,"INCLINATION":88.9725,"RA_OF_ASC_NODE":97.7676,"ARG_OF_PERICENTER":187.0828,"MEAN_ANOMALY":173.0126,"EPHEMERIS_TYPE":0,"CLASSIFICATION_TYPE":"U","NORAD_CAT_ID":62795,"ELEMENT_SET_NO":999,"REV_AT_EPOCH":5415,"BSTAR":0.00016493665,"MEAN_MOTION_DOT":1.19e-6,"MEAN_MOTION_DDOT":0},{"OBJECT_NAME":"QIANFAN-66","OBJECT_ID":"2025-016M","EPOCH":"2026-02-01T22:30:06.786720","MEAN_MOTION":13.50993232,"ECCENTRICITY":0.00153779,"INCLINATION":88.9744,"RA_OF_ASC_NODE":97.7448,"ARG_OF_PERICENTER":183.3441,"MEAN_ANOMALY":176.761,"EPHEMERIS_TYPE":0,"CLASSIFICATION_TYPE":"U","NORAD_CAT_ID":62796,"ELEMENT_SET_NO":999,"REV_AT_EPOCH":5420,"BSTAR":0.00016334006,"MEAN_MOTION_DOT":1.18e-6,"MEAN_MOTION_DDOT":0},{"OBJECT_NAME":"QIANFAN-67","OBJECT_ID":"2025-016N","EPOCH":"2026-02-01T22:35:59.800704","MEAN_MOTION":13.50997492,"ECCENTRICITY":0.0015106,"INCLINATION":88.9734,"RA_OF_ASC_NODE":97.7649,"ARG_OF_PERICENTER":190.0565,"MEAN_ANOMALY":170.0286,"EPHEMERIS_TYPE":0,"CLASSIFICATION_TYPE":"U","NORAD_CAT_ID":62797,"ELEMENT_SET_NO":999,"REV_AT_EPOCH":5417,"BSTAR":0.00016360417,"MEAN_MOTION_DOT":1.18e-6,"MEAN_MOTION_DDOT":0},{"OBJECT_NAME":"QIANFAN-68","OBJECT_ID":"2025-016P","EPOCH":"2026-02-01T20:37:35.724864","MEAN_MOTION":13.50989439,"ECCENTRICITY":0.00152102,"INCLINATION":88.9738,"RA_OF_ASC_NODE":97.8205,"ARG_OF_PERICENTER":188.5965,"MEAN_ANOMALY":171.4928,"EPHEMERIS_TYPE":0,"CLASSIFICATION_TYPE":"U","NORAD_CAT_ID":62798,"ELEMENT_SET_NO":999,"REV_AT_EPOCH":5414,"BSTAR":0.00014471818,"MEAN_MOTION_DOT":1.06e-6,"MEAN_MOTION_DDOT":0}]
